#dP2021  7 29 12  0  0.00000000      96 __u+U ITR00 EXT  IAC
## 2168 388800.00000000   900.00000000 59424 0.5000000000000
+  117   C06C07C08C09C10C11C12C13C14C16C19C20C21C22C23C24C25
+        C26C27C28C29C30C32C33C34C35C36C37C38C39C40C41C42C43
+        C44C45C46E01E02E03E04E05E07E08E09E11E12E13E14E15E18
+        E19E21E24E25E26E27E30E31E33E36G01G02G03G04G05G06G07
+        G08G09G10G11G12G13G14G15G16G17G18G19G20G21G22G23G24
+        G25G26G27G28G29G30G31G32J01J02J03R01R02R03R04R05R07
+        R08R09R11R12R13R14R15R16R17R18R19R20R21R22R24  0  0
++        10 11  8 10 10  9  9  8  9 10  9  9 10 10  7  8  8
++         9  9  9  9  8  8  8  9 11  8  7  9 11 10  9  9  8
++         7  8  7  8  7  9  9  7  7  8  7  8  8  7  7  8  9
++         9  7  9  7  8  9  8  7  9  7  8  8  6  8  7  8  7
++         7  8  7  6  7  6  8  8  6  7  6  8  7  7  7  8  7
++         8  6  8  8  8  8  7  7 16  9 10 10  7  8  8  8  8
++         8  8  8  8  7  8  6  8  7  8  8  8  8  9  8  0  0
%c M  cc GPS ccc cccc cccc cccc cccc ccccc ccccc ccccc ccccc
%c cc cc ccc ccc cccc cccc cccc cccc ccccc ccccc ccccc ccccc
%f  0.0000000  0.000000000  0.00000000000  0.000000000000000
%f  0.0000000  0.000000000  0.00000000000  0.000000000000000
%i    0    0    0    0      0      0      0      0         0
%i    0    0    0    0      0      0      0      0         0
/* IAC                                ULTRA-RAPID PREDICTION
/* S/V CLOCKS ARE ALIGNED TO GNSS TIME                      
/* G:C1WC2W R:C1PC2P E:C1XC5X C:C2IC6I J:C1CC2S             
/* PCV:IGS14_2163 OL/AL:FES2004  NONE     YN ORB:CoN CLK:CoN
*  2021 07 29 15  0  0.00000000
PC06 -15500.607924  22023.091114  32825.388512    687.156233
PC07 -20211.426877  37248.132615  -2377.972023     68.687176
PC08  -4446.172974  30190.477919 -28796.628012   -911.727852
PC09    779.623845  24967.795072  34316.967126    -61.181523
PC10 -10283.208638  38771.832919 -13509.244107    -13.800288
PC11  19281.419592  -8308.342209  18414.473573    486.097645
PC12  27520.257364   3362.803269   3069.768445    797.125643
PC13   5480.756403  37423.452750 -18281.744993    354.329939
PC14  19818.490907 -19195.632067   3986.066956    764.362336
PC16 -13634.250882  21995.151290  33384.154275   -890.263233
PC19 -14477.302336  23203.586190   5627.150377    927.081499
PC20 -21626.275247  13626.730650 -11223.527651   -832.197911
PC21  16152.335306   4730.270483  22269.792419   -937.528780
PC22   1242.489764  19669.999055  19768.682936   -948.931426
PC23  -8723.573515 -26496.272195   -692.740130   -965.001643
PC24  15826.567667  -3916.859204 -22644.955891   -963.579050
PC25   3993.532542 -22329.528372 -16266.107297   -878.455542
PC26  17676.657215  14512.336633 -15971.377469    871.924739
PC27 -25595.802784  -9325.391804   6003.097784    572.261518
PC28 -10836.235062 -16215.056723  19962.239139    -44.850174
PC29  -9750.724528  13955.742870 -22122.396832    426.100570
PC30 -25432.563935   3578.636635 -10903.026222    475.686941
PC32 -16194.121005  -4602.860909 -22244.468940   -926.978507
PC33  14404.768010 -23242.860408  -5512.054253   -948.939415
PC34  25093.846861  -4035.642489  11530.362231   -617.105481
PC35  10987.383821  15950.078966 -20110.399608   -164.536463
PC36  -4818.223982  21965.362326  16558.826160   -737.406415
PC37 -17177.261527 -15804.575856  15329.040916   -862.582849
PC38  -4290.818055  32270.043296 -26705.187299    164.981338
PC39 -11951.154076  22835.513448  33359.278542     32.683859
PC40 -17522.505288  36243.325407 -12772.808944    185.202006
PC41  -1016.687790 -19850.978487 -19540.298746   -968.902088
PC42  21679.926705 -12890.812509  11960.194824   -925.148976
PC43  10451.469742 -13801.419210  21879.587848   -843.542524
PC44  25820.144724   8629.324536  -6212.455174    314.053264
PC45   8848.160529  26451.282701    575.541056    506.425845
PC46 -15325.733623   5077.687467  22775.212125    156.650711
PE01  11519.071366 -24694.816471 -11551.537507  -1160.382771
PE02 -11459.099334  24772.364422  11448.086161    236.260534
PE03 -19581.475922  17887.399174  13162.986723   -457.930891
PE04   -223.961372 -17873.291534 -23585.751624   -823.664803
PE05 -28197.035973   7386.648536  -5164.183053   -261.404559
PE07  20280.523593   7309.634042  20286.408588   -567.452185
PE08    633.357126  17646.662980  23762.043156   5962.622139
PE09 -20438.232896  -6948.272208 -20255.190703   5584.081868
PE11 -23831.757970 -17513.460840  -1108.987629   5652.446972
PE12 -10040.133836 -21926.295859  17147.835057   5086.907116
PE13  23717.526947  17699.314603    633.191670    419.626671
PE14 -28182.432403   1235.495537   3409.690300  -1517.076410
PE15  10168.638500  21860.964342 -17172.944796    800.864900
PE18  22871.156952   9295.830779 -14683.834690  -1663.209990
PE19  21393.864737 -17059.234331 -11282.624815    338.968163
PE21  16884.102902  -7210.190784 -23212.593809   -678.976478
PE24 -12319.998241 -16210.868627  21484.616888  -1034.093103
PE25 -16902.412335   6968.679628  23290.893197   -541.536644
PE26  22944.174136   2339.084267  18545.644031   1523.137257
PE27  12771.762861  15218.019018 -21932.270638    -86.269556
PE30    350.678575  28809.229078  -6774.157241   2744.883746
PE31  -1199.835725 -28532.147242   7793.746358   -483.801442
PE33   9334.291691 -13140.136197  24823.587226   -467.005112
PE36 -23270.612580  -3124.391316 -18027.836571   -241.087438
PG01  20702.944079  11916.597438  11695.365117    613.565932
PG02 -11722.157537 -21601.679460  10633.924912   -622.874098
PG03  14255.140883   4545.699332  21847.759972   -236.024493
PG04  25165.960517   1649.412250   8440.847727   -203.211629
PG05  -9150.354939 -16330.029556 -18935.994519    -49.426516
PG06  -1128.185144 -19413.657179  18117.617889     47.430871
PG07  17042.955028  -2223.752700 -20010.000599    213.443413
PG08  18888.373913   7833.593716 -17126.328611    -30.595419
PG09  25358.541353  -7556.205170  -2518.613653   -357.195149
PG10 -11674.863298  22955.448202  -5753.144077   -171.768993
PG11  -9563.895443 -22866.223373   9536.138001     25.784286
PG12 -13678.433126  -5738.935437  21782.106085    -75.412186
PG13 -11004.357464 -13261.083049 -20387.124465    164.144856
PG14  12597.354983 -22761.415990  -5243.752204     35.997485
PG15 -19986.268485  -6539.766697 -16796.629506   -132.130732
PG16   2689.684085  21044.448857 -15932.443992   -365.001850
PG17  17507.906351 -13040.814178  15559.369418    481.219459
PG18 -14998.293713   5046.155716 -21357.555491    337.327963
PG19   8985.475279 -14422.588892  20092.377262     32.670161
PG20  -2738.899957 -24807.870724  -9485.932231    519.932827
PG21  21341.510451  15687.758823   5025.785777    134.160527
PG22  12340.751883  12638.803647  20069.630100   -551.473210
PG23 -15693.058322  14714.599917 -15559.524042     77.984754
PG24 -21635.740001 -14166.238873   6658.967155    191.443090
PG25 -16476.093422   6912.938872  19299.713785    181.984869
PG26  -3329.498848  25707.022968  -5128.393966    116.386028
PG27   8598.230067  13173.965231 -21632.615030   -170.320791
PG28   9693.936936 -24816.664261   1591.921793    529.355154
PG29 -26254.929111   4124.565418   -978.729251   -387.909232
PG30   8017.183866 -14243.599680 -20829.624161   -456.315042
PG31   2036.976890  20436.312361  16489.647864   -131.338744
PG32 -14045.251105  15087.042170  16768.441355     11.254569
PJ01 -29564.901811  30080.027649   7226.448263   -426.685097
PJ02 -28309.294860  25509.339533  23031.468122     -1.128933
PJ03 -29659.786375  16822.822710 -20237.399536     -0.417284
PR01  14799.440344 -18493.600057  -9447.491266     83.021243
PR02  -2107.776214 -11866.226510 -22448.014540    487.830262
PR03 -16206.881853   1157.049017 -19601.890721     40.376873
PR04 -20916.530557  13380.778318  -5800.423911     97.954328
PR05 -14080.250680  18045.718997  11247.011577     76.211938
PR07  16655.364785  -1690.228112  19300.056738    -41.848256
PR08  20946.768500 -13375.518340   5847.116143    -60.128034
PR09   7318.788387  23625.313744  -6378.069467      5.389546
PR11   9314.060216  -7974.471164 -22350.055887     45.327648
PR12   1638.941552 -22868.075194 -11165.320334    249.301298
PR13  -6936.729855 -23877.178221   5673.744760    -58.402314
PR14 -11613.321606 -10489.332757  20154.840702     67.040120
PR15  -9377.657154   8494.595928  22175.480544    102.412430
PR16   -630.393923  23316.970686  10160.744122    -18.671191
PR17 -23776.236346  -9303.121605    178.853759    445.249962
PR18 -20097.184903   -366.926144 -15667.855972     85.095418
PR19  -6971.456804   8202.849885 -23132.723670   -153.386123
PR20  13272.527037  13792.456074 -16879.963206    -53.262314
PR21  23886.868749   8829.747612   1114.060546   -227.523470
PR22  19573.494909    -33.120745  16388.629604   -125.138135
PR24 -13983.400165 -13871.117281  16230.020219     52.401691
EOF
